OBJECT_NAME,OBJECT_ID,EPOCH,MEAN_MOTION,ECCENTRICITY,INCLINATION,RA_OF_ASC_NODE,ARG_OF_PERICENTER,MEAN_ANOMALY,EPHEMERIS_TYPE,CLASSIFICATION_TYPE,NORAD_CAT_ID,ELEMENT_SET_NO,REV_AT_EPOCH,BSTAR,MEAN_MOTION_DOT,MEAN_MOTION_DDOT
STARLINK-34757,2025-152J,2026-07-13T13:01:16.878144,15.05672528,.0002169,97.2851,47.5247,88.3643,271.7833,0,U,64850,999,5435,.21E-3,.2977E-4,0
STARLINK-34722,2025-152K,2026-07-13T11:41:33.014688,15.05666743,.0001875,97.2837,47.4472,81.9607,278.1834,0,U,64851,999,5434,.22928E-3,.3255E-4,0
STARLINK-34564,2025-152L,2026-07-13T11:17:36.894624,15.05653214,.0002131,97.2861,47.4721,93.5389,266.6082,0,U,64852,999,5434,-.49792E-4,-.775E-5,0
STARLINK-34676,2025-152M,2026-07-13T11:45:31.317984,15.05649086,.0001839,97.2837,47.4433,81.1472,278.9964,0,U,64853,999,5434,.20768E-3,.2941E-4,0
STARLINK-34682,2025-152N,2026-07-13T12:13:26.504256,15.05660265,.0002687,97.2847,47.5768,76.9240,283.2287,0,U,64854,999,5435,.16099E-3,.2268E-4,0
STARLINK-34631,2025-152P,2026-07-13T12:57:17.493120,15.05665268,.0002009,97.2853,47.5307,94.2671,265.8787,0,U,64855,999,5435,.2097E-3,.2972E-4,0
STARLINK-34578,2025-152Q,2026-07-13T12:05:28.109184,15.05659718,.0002128,97.2824,47.5835,85.3397,274.8073,0,U,64856,999,5435,.13669E-3,.1917E-4,0
STARLINK-34683,2025-152R,2026-07-13T12:41:21.014016,15.05655980,.0002428,97.2854,47.5510,86.8239,273.3266,0,U,64857,999,5435,.54225E-4,.726E-5,0
STARLINK-34654,2025-152S,2026-07-13T12:09:29.198016,15.05635831,.000213,97.2878,47.5682,33.3683,326.7678,0,U,64858,999,5435,-.79688E-4,-.1205E-4,0
STARLINK-34575,2025-152T,2026-07-13T12:01:28.802784,15.05659343,.0002111,97.2837,47.5828,91.7037,268.4433,0,U,64859,999,5435,.12889E-3,.1804E-4,0
STARLINK-34570,2025-152U,2026-07-13T11:49:30.510336,15.05670689,.000217,97.2888,47.4594,70.9211,289.2252,0,U,64860,999,5434,.20853E-3,.2955E-4,0
STARLINK-34651,2025-152V,2026-07-13T13:05:16.093824,15.05666493,.0001789,97.2846,47.5438,87.0300,273.1133,0,U,64861,999,5435,.13079E-3,.1832E-4,0
STARLINK-34684,2025-152W,2026-07-13T09:17:59.396064,15.05658662,.0002381,97.2858,47.4411,91.0032,269.1468,0,U,64862,999,5433,.17849E-3,.252E-4,0
STARLINK-34690,2025-152X,2026-07-13T12:17:26.503584,15.05648431,.0002429,97.2845,47.5738,92.7005,267.4501,0,U,64863,999,5435,-.16415E-4,-.293E-5,0
STARLINK-34628,2025-152Y,2026-07-13T12:33:24.098112,15.05665531,.0002561,97.2854,47.5551,93.9064,266.2457,0,U,64864,999,5435,.22884E-3,.3248E-4,0
STARLINK-34544,2025-152Z,2026-07-13T12:21:26.935776,15.05646999,.0003148,97.2814,47.5622,96.4448,263.7138,0,U,64865,999,5435,.19444E-3,.275E-4,0
STARLINK-34647,2025-157A,2026-07-13T04:17:38.436576,15.34422417,.0000719,53.1563,121.5925,122.2907,237.8166,0,U,64904,999,5534,.70183E-3,.23427E-3,0
STARLINK-34273,2025-157B,2026-07-13T05:39:19.424736,15.34416421,.0001736,53.1603,121.2290,79.4680,280.6518,0,U,64905,999,5537,.5393E-3,.17898E-3,0
STARLINK-34713,2025-157C,2026-07-13T05:00:03.564576,15.34415553,.0000891,53.1586,121.7756,83.3934,276.7170,0,U,64906,999,5530,.6044E-3,.20109E-3,0
STARLINK-34712,2025-157D,2026-07-13T05:44:41.167968,15.34408911,.0001198,53.1628,119.8329,191.7723,168.3252,0,U,64907,999,5538,.23073E-3,.7429E-4,0
STARLINK-34702,2025-157E,2026-07-13T05:06:33.994944,15.31722798,.0001234,53.1584,121.7958,89.5496,270.5647,0,U,64908,999,5535,.44024E-3,.1333E-3,0
STARLINK-34687,2025-157F,2026-07-13T05:03:05.128128,15.34415737,.0001069,53.1590,121.7821,105.1228,254.9892,0,U,64909,999,5530,.50649E-3,.16783E-3,0
STARLINK-34642,2025-157G,2026-07-13T04:32:57.388704,15.31723186,.000096,53.1581,121.6555,129.6921,230.4165,0,U,64910,999,5535,.4002E-3,.12083E-3,0
STARLINK-34718,2025-157H,2026-07-13T05:06:06.942240,15.34423887,.0001112,53.1586,121.8013,78.1561,281.9566,0,U,64911,999,5535,.65975E-3,.21997E-3,0
STARLINK-34711,2025-157J,2026-07-13T04:14:36.157632,15.34424281,.0001318,53.1580,121.5758,96.9920,263.1233,0,U,64912,999,5535,.37998E-3,.12493E-3,0
STARLINK-34659,2025-157K,2026-07-12T22:44:00.546720,15.31713845,.00011385,53.1590,122.9845,55.4220,304.6889,0,U,64913,999,5526,.62277405E-3,.19018E-3,0
STARLINK-34571,2025-157L,2026-07-13T04:47:57.058944,15.34407717,.0002426,53.1562,121.7162,88.3463,271.7818,0,U,64914,999,5530,.44589E-3,.14722E-3,0
STARLINK-34636,2025-157M,2026-07-13T05:45:23.579136,15.34374488,.0001066,53.1539,121.2571,93.5526,266.5598,0,U,64915,999,5536,.4438E-3,.14636E-3,0
STARLINK-34695,2025-157N,2026-07-13T05:03:48.843072,15.34406318,.000125,53.1569,113.9802,116.6402,243.4729,0,U,64916,999,5546,.57872E-3,.19231E-3,0
STARLINK-34653,2025-157P,2026-07-12T04:50:15.276480,15.31708925,.00016593,53.1602,126.8577,86.6206,273.4986,0,U,64917,999,5514,.58052338E-3,.17697E-3,0
STARLINK-34611,2025-157Q,2026-07-13T05:33:16.226784,15.34432040,.0003084,53.1577,121.2026,73.1347,286.9994,0,U,64918,999,5536,.61213E-3,.20384E-3,0
STARLINK-34599,2025-157R,2026-07-13T03:53:32.885088,15.34397258,.0000911,53.1580,122.1811,179.1053,180.9952,0,U,64919,999,5534,.42321E-3,.13948E-3,0
STARLINK-34069,2025-157S,2026-07-13T04:38:51.060192,15.34413237,.0001342,53.1595,121.6790,84.5587,275.5568,0,U,64920,999,5535,.40219E-3,.13242E-3,0
STARLINK-34699,2025-157T,2026-07-13T05:30:15.705216,15.34400602,.000209,53.1567,121.1917,70.1553,289.9674,0,U,64921,999,5536,.64715E-3,.21553E-3,0
STARLINK-34700,2025-157U,2026-07-13T05:18:14.334336,15.34389997,.000064,53.1609,121.8494,62.2195,297.8873,0,U,64922,999,5530,.69035E-3,.23013E-3,0
STARLINK-34643,2025-157V,2026-07-12T04:59:48.627744,15.34398445,.00019967,53.1574,126.1976,55.3405,304.7785,0,U,64923,999,5520,.60018262E-3,.19955E-3,0
STARLINK-34199,2025-157W,2026-07-13T04:39:40.764384,15.31731655,.0000571,53.1594,121.6789,55.1679,304.9376,0,U,64924,999,5530,.5736E-3,.17494E-3,0
STARLINK-34579,2025-157X,2026-07-12T06:36:37.596960,15.34369604,.0001479,53.1584,125.9009,82.2527,277.8644,0,U,64925,999,5521,.51755E-3,.17133E-3,0
STARLINK-34543,2025-157Y,2026-07-13T05:46:53.643360,15.31720583,.0001346,53.1581,121.9690,86.8914,273.2242,0,U,64926,999,5530,.33036E-3,.9907E-4,0
STARLINK-34661,2025-157Z,2026-07-13T04:23:41.980128,15.34416176,.0001185,53.1592,121.6002,92.3705,267.7433,0,U,64927,999,5507,.44475E-3,.14688E-3,0
STARLINK-34248,2025-157AA,2026-07-13T05:15:13.023936,15.34396807,.0000894,53.1576,121.8316,64.7675,295.3420,0,U,64928,999,5535,.447E-3,.14755E-3,0
STARLINK-34290,2025-157AB,2026-07-12T19:58:29.959680,15.34423577,.00015562,53.1603,123.6861,100.7278,259.3900,0,U,64929,999,5529,.77534307E-3,.2593E-3,0
STARLINK-34220,2025-157AC,2026-07-13T00:11:14.539488,15.31717089,.000145,53.1574,122.6379,103.4552,256.6611,0,U,64930,999,5521,.33371431E-3,.1001E-3,0
STARLINK-34715,2025-157AD,2026-07-13T04:41:52.236672,15.34416027,.0001218,53.1626,121.6849,199.4092,160.6864,0,U,64931,999,5535,.62324E-3,.2075E-3,0
STARLINK-34705,2025-158A,2026-07-13T12:02:19.089312,15.05663010,.0002306,97.2847,56.0236,78.1693,281.9793,0,U,64932,999,5428,.16032E-3,.2258E-4,0
STARLINK-34737,2025-158B,2026-07-13T11:46:22.846944,15.05656614,.0002049,97.2866,56.0417,78.7426,281.4031,0,U,64933,999,5428,.25862E-3,.3678E-4,0
STARLINK-34775,2025-158C,2026-07-13T11:42:23.114592,15.05658532,.0002573,97.2865,56.0530,93.3482,266.8040,0,U,64934,999,5428,.13078E-3,.1831E-4,0
STARLINK-34726,2025-158D,2026-07-13T00:00:37.647072,15.05663354,.00028403,97.2848,55.6448,83.2354,276.9197,0,U,64935,999,5421,.34550909E-3,.4934E-4,0
STARLINK-34529,2025-158E,2026-07-13T11:54:20.472192,15.05660073,.0002018,97.2858,56.0400,90.0634,270.0825,0,U,64936,999,5428,.16619E-3,.2343E-4,0
STARLINK-34743,2025-158F,2026-07-13T11:38:23.980128,15.05657610,.0003913,97.2855,56.0578,105.0130,255.1531,0,U,64937,999,5428,.83853E-4,.1154E-4,0
STARLINK-34730,2025-158G,2026-07-13T12:18:16.949088,15.05661168,.0002082,97.2843,56.1651,89.5645,270.5821,0,U,64938,999,5429,.97081E-4,.1345E-4,0
STARLINK-34714,2025-158H,2026-07-13T12:22:16.320288,15.05659963,.0002544,97.2846,56.1718,88.0979,272.0540,0,U,64939,999,5413,.15804E-3,.2225E-4,0
STARLINK-34755,2025-158J,2026-07-13T12:14:34.704096,15.04843791,.0002296,97.2841,56.3675,78.0660,282.0824,0,U,64940,999,5430,.23652E-3,.3285E-4,0
STARLINK-34740,2025-158K,2026-07-13T09:30:48.521952,15.05665065,.0003038,97.2852,56.0250,88.5457,271.6118,0,U,64941,999,5421,.45726E-4,.604E-5,0
STARLINK-34742,2025-158L,2026-07-12T14:14:26.170080,15.05658715,.0002944,97.2843,55.2714,90.9432,269.2133,0,U,64942,999,5415,.12385E-3,.1732E-4,0
STARLINK-34719,2025-158M,2026-07-12T16:06:06.484896,15.05666152,.00032345,97.2849,55.3267,85.7876,274.3721,0,U,64943,999,5416,.28404458E-3,.4046E-4,0
STARLINK-34373,2025-158N,2026-07-12T15:14:14.010432,15.05660519,.00021575,97.2849,55.2209,86.5539,273.5936,0,U,64944,999,5415,.23872707E-3,.3391E-4,0
STARLINK-34758,2025-158P,2026-07-13T13:02:08.390688,15.05661789,.0003692,97.2868,56.1361,98.7142,261.4504,0,U,64945,999,5429,.48002E-4,.637E-5,0
STARLINK-34753,2025-158Q,2026-07-12T14:34:23.046816,15.05653670,.0002448,97.2853,55.2556,80.1750,279.9754,0,U,64946,999,5415,.23128E-3,.3283E-4,0
STARLINK-34747,2025-158R,2026-07-13T00:24:30.723264,15.05666696,.00018073,97.2871,55.6255,74.3522,285.7905,0,U,64947,999,5421,.34599856E-3,.4942E-4,0
STARLINK-34630,2025-158S,2026-07-13T09:14:50.411616,15.05685753,.0002262,97.2787,56.0339,58.4619,301.6830,0,U,64948,999,5427,.40174E-3,.575E-4,0
STARLINK-34689,2025-158T,2026-07-13T12:06:18.330912,15.05664044,.0002045,97.2843,56.0277,80.8555,279.2904,0,U,64949,999,5428,.24259E-3,.3447E-4,0
STARLINK-34586,2025-158U,2026-07-13T11:50:21.496704,15.05663143,.0002662,97.2863,56.0458,83.8323,276.3208,0,U,64950,999,5428,.99674E-4,.1383E-4,0
STARLINK-34738,2025-158V,2026-07-12T14:18:25.543872,15.05659881,.0003397,97.2855,55.2773,82.7502,277.4112,0,U,64951,999,5415,.22268E-3,.3159E-4,0
STARLINK-34744,2025-158W,2026-07-13T12:14:17.018016,15.05660133,.000209,97.2838,56.0141,76.2300,283.9160,0,U,64952,999,5428,.18196E-3,.2571E-4,0
